*******************************************************************************
Ephemeris / WWW_USER Mon Mar 24 08:24:10 2025 Pasadena, USA      / Horizons    
*******************************************************************************
Target body name: (2018 TG6)                      {source: JPL#30}
Center body name: Earth (399)                     {source: DE441}
Center-site name: Mauna Kea
*******************************************************************************
Start time      : A.D. 2018-Nov-29 03:51:00.0000 UT      
Stop  time      : A.D. 2018-Nov-29 16:29:00.0000 UT      
Step-size       : 1 minutes
*******************************************************************************
Target pole/equ : undefined
Target radii    : undefined                                                    
Center geodetic : 204.5278, 19.8260847, 4.21024   {E-lon(deg),Lat(deg),Alt(km)}
Center cylindric: 204.5278, 6006.35451, 2151.0229 {E-lon(deg),Dxy(km),Dz(km)}
Center pole/equ : ITRF93                          {East-longitude positive}
Center radii    : 6378.137, 6378.137, 6356.752 km {Equator_a, b, pole_c}       
Target primary  : Sun
Vis. interferer : MOON (R_eq= 1737.400) km        {source: DE441}
Rel. light bend : Sun                             {source: DE441}
Rel. lght bnd GM: 1.3271E+11 km^3/s^2                                          
Small-body perts: Yes                             {source: SB441-N16}
Atmos refraction: NO (AIRLESS)
RA format       : HMS
Time format     : CAL 
Calendar mode   : Mixed Julian/Gregorian
RTS-only print  : NO       
EOP file        : eop.250321.p250617                                           
EOP coverage    : DATA-BASED 1962-JAN-20 TO 2025-MAR-21. PREDICTS-> 2025-JUN-16
Units conversion: 1 au= 149597870.700 km, c= 299792.458 km/s, 1 day= 86400.0 s 
Table cut-offs 1: Elevation (-90.0deg=NO ),Airmass (>38.000=NO), Daylight (YES)
Table cut-offs 2: Solar elongation (  0.0,180.0=NO ),Local Hour Angle( 0.0=NO )
Table cut-offs 3: RA/DEC angular rate (     0.0=NO )                           
*******************************************************************************
Initial IAU76/J2000 heliocentric ecliptic osculating elements (au, days, deg.):
  EPOCH=  2458431.5 ! 2018-Nov-09.00 (TDB)         Residual RMS= .2345         
   EC= .08078462401503236  QR= .9719826736009184   TP= 2458484.4320189627      
   OM= 45.37159736002829   W=  55.46172815883946   IN= 1.097814612439332       
  Equivalent ICRF heliocentric cartesian coordinates (au, au/d):
   X= 7.039692724255667E-01  Y= 6.572194580492579E-01  Z= 2.849862807208282E-01
  VX=-1.330010453008250E-02 VY= 1.042346427712734E-02 VZ= 4.885657766154543E-03
Asteroid physical parameters (km, seconds, rotational period in hours):        
   GM= n.a.                RAD= n.a.               ROTPER= n.a.                
   H= 27.25                G= .150                 B-V= n.a.                   
                           ALBEDO= n.a.            STYP= n.a.                  
*******************************************************************************
 Date__(UT)__HR:MN     R.A._________(ICRF)_________DEC
******************************************************
$$SOE
 2018-Nov-29 12:03  m  20 49 39.956022 +24 06 33.09291
 2018-Nov-29 12:04  m  20 49 39.428195 +24 06 35.78203
 2018-Nov-29 12:05  m  20 49 38.901061 +24 06 38.47590
 2018-Nov-29 12:06  m  20 49 38.374617 +24 06 41.17454
 2018-Nov-29 12:07  m  20 49 37.848858 +24 06 43.87796
 2018-Nov-29 12:08  m  20 49 37.323781 +24 06 46.58619
 2018-Nov-29 12:09  m  20 49 36.799382 +24 06 49.29924
 2018-Nov-29 12:10  m  20 49 36.275656 +24 06 52.01713
 2018-Nov-29 12:11  m  20 49 35.752600 +24 06 54.73988
 2018-Nov-29 12:12  m  20 49 35.230210 +24 06 57.46750
 2018-Nov-29 12:13  m  20 49 34.708482 +24 07 00.20002
 2018-Nov-29 12:14  m  20 49 34.187412 +24 07 02.93745
 2018-Nov-29 12:15  m  20 49 33.666995 +24 07 05.67980
 2018-Nov-29 12:16  m  20 49 33.147228 +24 07 08.42710
 2018-Nov-29 12:17  m  20 49 32.628106 +24 07 11.17936
 2018-Nov-29 12:18  m  20 49 32.109627 +24 07 13.93660
 2018-Nov-29 12:19  m  20 49 31.591784 +24 07 16.69884
 2018-Nov-29 12:20  m  20 49 31.074575 +24 07 19.46609
 2018-Nov-29 12:21  m  20 49 30.557996 +24 07 22.23836
 2018-Nov-29 12:22  m  20 49 30.042041 +24 07 25.01568
 2018-Nov-29 12:23  m  20 49 29.526708 +24 07 27.79807
 2018-Nov-29 12:24  m  20 49 29.011992 +24 07 30.58553
 2018-Nov-29 12:25  m  20 49 28.497888 +24 07 33.37808
 2018-Nov-29 12:26  m  20 49 27.984393 +24 07 36.17575
 2018-Nov-29 12:27  m  20 49 27.471503 +24 07 38.97854
 2018-Nov-29 12:28  m  20 49 26.959212 +24 07 41.78648
 2018-Nov-29 12:29  m  20 49 26.447518 +24 07 44.59957
 2018-Nov-29 12:30  m  20 49 25.936416 +24 07 47.41784
 2018-Nov-29 12:31  m  20 49 25.425901 +24 07 50.24130
 2018-Nov-29 12:32  m  20 49 24.915969 +24 07 53.06996
 2018-Nov-29 12:33  m  20 49 24.406617 +24 07 55.90384
 2018-Nov-29 12:34  m  20 49 23.897839 +24 07 58.74296
 2018-Nov-29 12:35  m  20 49 23.389633 +24 08 01.58733
 2018-Nov-29 12:36  m  20 49 22.881992 +24 08 04.43697
 2018-Nov-29 12:37  m  20 49 22.374913 +24 08 07.29189
 2018-Nov-29 12:38  m  20 49 21.868392 +24 08 10.15211
 2018-Nov-29 12:39  m  20 49 21.362425 +24 08 13.01763
 2018-Nov-29 12:40  m  20 49 20.857007 +24 08 15.88849
 2018-Nov-29 12:41  m  20 49 20.352133 +24 08 18.76468
 2018-Nov-29 12:42  m  20 49 19.847799 +24 08 21.64623
 2018-Nov-29 12:43  m  20 49 19.344002 +24 08 24.53314
 2018-Nov-29 12:44  m  20 49 18.840736 +24 08 27.42545
 2018-Nov-29 12:45  m  20 49 18.337998 +24 08 30.32315
 2018-Nov-29 12:46  m  20 49 17.835782 +24 08 33.22626
 2018-Nov-29 12:47  m  20 49 17.334085 +24 08 36.13480
 2018-Nov-29 12:48  m  20 49 16.832902 +24 08 39.04877
 2018-Nov-29 12:49  m  20 49 16.332229 +24 08 41.96820
 2018-Nov-29 12:50  m  20 49 15.832060 +24 08 44.89310
 2018-Nov-29 12:51  m  20 49 15.332393 +24 08 47.82348
 2018-Nov-29 12:52  m  20 49 14.833222 +24 08 50.75936
 2018-Nov-29 12:53  m  20 49 14.334542 +24 08 53.70074
 2018-Nov-29 12:54  m  20 49 13.836350 +24 08 56.64764
 2018-Nov-29 12:55  m  20 49 13.338641 +24 08 59.60008
 2018-Nov-29 12:56  m  20 49 12.841410 +24 09 02.55806
 2018-Nov-29 12:57  m  20 49 12.344653 +24 09 05.52161
 2018-Nov-29 12:58  m  20 49 11.848366 +24 09 08.49073
 2018-Nov-29 12:59  m  20 49 11.352543 +24 09 11.46543
 2018-Nov-29 13:00  m  20 49 10.857181 +24 09 14.44573
 2018-Nov-29 13:01  m  20 49 10.362274 +24 09 17.43164
 2018-Nov-29 13:02  m  20 49 09.867819 +24 09 20.42318
 2018-Nov-29 13:03  m  20 49 09.373810 +24 09 23.42035
 2018-Nov-29 13:04  m  20 49 08.880243 +24 09 26.42316
 2018-Nov-29 13:05  m  20 49 08.387114 +24 09 29.43164
 2018-Nov-29 13:06  m  20 49 07.894418 +24 09 32.44579
 2018-Nov-29 13:07  m  20 49 07.402150 +24 09 35.46562
 2018-Nov-29 13:08  m  20 49 06.910306 +24 09 38.49115
 2018-Nov-29 13:09  m  20 49 06.418881 +24 09 41.52238
 2018-Nov-29 13:10  m  20 49 05.927871 +24 09 44.55933
 2018-Nov-29 13:11  m  20 49 05.437270 +24 09 47.60201
 2018-Nov-29 13:12  m  20 49 04.947074 +24 09 50.65043
 2018-Nov-29 13:13  m  20 49 04.457280 +24 09 53.70460
 2018-Nov-29 13:14  m  20 49 03.967881 +24 09 56.76454
 2018-Nov-29 13:15  m  20 49 03.478873 +24 09 59.83025
 2018-Nov-29 13:16  m  20 49 02.990252 +24 10 02.90174
 2018-Nov-29 13:17  m  20 49 02.502013 +24 10 05.97903
 2018-Nov-29 13:18  m  20 49 02.014151 +24 10 09.06213
 2018-Nov-29 13:19  m  20 49 01.526662 +24 10 12.15104
 2018-Nov-29 13:20  m  20 49 01.039540 +24 10 15.24578
 2018-Nov-29 13:21  m  20 49 00.552782 +24 10 18.34635
 2018-Nov-29 13:22  m  20 49 00.066382 +24 10 21.45277
 2018-Nov-29 13:23  m  20 48 59.580336 +24 10 24.56505
 2018-Nov-29 13:24  m  20 48 59.094638 +24 10 27.68320
 2018-Nov-29 13:25  m  20 48 58.609285 +24 10 30.80722
 2018-Nov-29 13:26  m  20 48 58.124272 +24 10 33.93713
 2018-Nov-29 13:27  m  20 48 57.639593 +24 10 37.07294
 2018-Nov-29 13:28  m  20 48 57.155244 +24 10 40.21465
 2018-Nov-29 13:29  m  20 48 56.671220 +24 10 43.36228
 2018-Nov-29 13:30  m  20 48 56.187517 +24 10 46.51583
 2018-Nov-29 13:31  m  20 48 55.704130 +24 10 49.67531
 2018-Nov-29 13:32  m  20 48 55.221053 +24 10 52.84074
 2018-Nov-29 13:33  m  20 48 54.738282 +24 10 56.01211
 2018-Nov-29 13:34  m  20 48 54.255813 +24 10 59.18945
 2018-Nov-29 13:35  m  20 48 53.773640 +24 11 02.37275
 2018-Nov-29 13:36  m  20 48 53.291759 +24 11 05.56204
 2018-Nov-29 13:37  m  20 48 52.810164 +24 11 08.75730
 2018-Nov-29 13:38  m  20 48 52.328852 +24 11 11.95857
 2018-Nov-29 13:39  m  20 48 51.847817 +24 11 15.16583
 2018-Nov-29 13:40  m  20 48 51.367054 +24 11 18.37910
 2018-Nov-29 13:41  m  20 48 50.886558 +24 11 21.59839
 2018-Nov-29 13:42  m  20 48 50.406326 +24 11 24.82371
 2018-Nov-29 13:43  m  20 48 49.926351 +24 11 28.05506
 2018-Nov-29 13:44  m  20 48 49.446629 +24 11 31.29245
 2018-Nov-29 13:45  m  20 48 48.967155 +24 11 34.53589
 2018-Nov-29 13:46  m  20 48 48.487924 +24 11 37.78539
 2018-Nov-29 13:47  m  20 48 48.008932 +24 11 41.04095
 2018-Nov-29 13:48  m  20 48 47.530173 +24 11 44.30258
 2018-Nov-29 13:49  m  20 48 47.051643 +24 11 47.57028
 2018-Nov-29 13:50  m  20 48 46.573336 +24 11 50.84407
 2018-Nov-29 13:51  m  20 48 46.095249 +24 11 54.12395
 2018-Nov-29 13:52  m  20 48 45.617375 +24 11 57.40993
 2018-Nov-29 13:53  m  20 48 45.139710 +24 12 00.70202
 2018-Nov-29 13:54  m  20 48 44.662249 +24 12 04.00021
 2018-Nov-29 13:55  m  20 48 44.184988 +24 12 07.30452
 2018-Nov-29 13:56  m  20 48 43.707920 +24 12 10.61496
 2018-Nov-29 13:57  m  20 48 43.231042 +24 12 13.93152
 2018-Nov-29 13:58  m  20 48 42.754349 +24 12 17.25422
 2018-Nov-29 13:59  m  20 48 42.277835 +24 12 20.58305
 2018-Nov-29 14:00  m  20 48 41.801495 +24 12 23.91804
 2018-Nov-29 14:01  m  20 48 41.325325 +24 12 27.25918
 2018-Nov-29 14:02  m  20 48 40.849320 +24 12 30.60647
 2018-Nov-29 14:03  m  20 48 40.373474 +24 12 33.95993
 2018-Nov-29 14:04  m  20 48 39.897784 +24 12 37.31956
 2018-Nov-29 14:05  m  20 48 39.422243 +24 12 40.68536
